KUIPER-00112            
1 65150U 25171U   25307.91670139  .00021950  00000+0  78633-3 0  9992
2 65150  51.8828 357.8519 0007449  93.7405 130.4369 15.28653371  5913
KUIPER-00114            
1 65151U 25171V   25307.91791587  .00003626  00000+0  50457-3 0  9998
2 65151  51.9013  11.7707 0005754  58.2549 301.8974 14.79924030 14013
KUIPER-00115            
1 65152U 25171W   25307.91670139 -.00192488  00000+0 -21677-1 0  9995
2 65152  51.9283   4.4027 0011405  76.2626 154.4579 14.87281389  5669
KUIPER-00116            
1 65153U 25171X   25307.91670139 -.00012015  00000+0 -15532-2 0  9997
2 65153  51.9002   9.1479 0010125  39.5346 199.7465 14.79793592  3974
KUIPER-00118            
1 65154U 25171Y   25307.47899673  .00003174  00000+0  44503-3 0  9990
2 65154  51.9015  13.6858 0001898  82.1929 277.9249 14.79943844 13953
KUIPER-00119            
1 65155U 25171Z   25307.91670139 -.00512062  00000+0 -37682-1 0  9995
2 65155  51.9040   0.9221 0007054  48.8521  21.8265 15.05171832  5430
KUIPER-00120            
1 65762U 25217A   25307.91670139 -.00784107  00000+0 -37104-1 0  9990
2 65762  51.8760 253.4926 0011808 238.5716 106.0936 15.21390436  5741
KUIPER-00132            
1 65763U 25217B   25307.55636219  .00038946  00000+0  10931-2 0  9993
2 65763  51.8641 254.1077 0005521 234.2316 125.8157 15.36166887  6011
