<?xml version="1.0" encoding="UTF-8"?>
<ndm xmlns:xsi="http://www.w3.org/2001/XMLSchema-instance" xsi:noNamespaceSchemaLocation="https://sanaregistry.org/r/ndmxml_unqualified/ndmxml-2.0.0-master-2.0.xsd">
<omm id="CCSDS_OMM_VERS" version="2.0">
<header><CREATION_DATE/><ORIGINATOR/></header><body><segment><metadata><OBJECT_NAME>KUIPER-00112</OBJECT_NAME><OBJECT_ID>2025-171U</OBJECT_ID><CENTER_NAME>EARTH</CENTER_NAME><REF_FRAME>TEME</REF_FRAME><TIME_SYSTEM>UTC</TIME_SYSTEM><MEAN_ELEMENT_THEORY>SGP4</MEAN_ELEMENT_THEORY></metadata><data><meanElements><EPOCH>2025-11-03T22:00:03.000096</EPOCH><MEAN_MOTION>15.28653371</MEAN_MOTION><ECCENTRICITY>.00074491</ECCENTRICITY><INCLINATION>51.8828</INCLINATION><RA_OF_ASC_NODE>357.8519</RA_OF_ASC_NODE><ARG_OF_PERICENTER>93.7405</ARG_OF_PERICENTER><MEAN_ANOMALY>130.4369</MEAN_ANOMALY></meanElements><tleParameters><EPHEMERIS_TYPE>0</EPHEMERIS_TYPE><CLASSIFICATION_TYPE>U</CLASSIFICATION_TYPE><NORAD_CAT_ID>65150</NORAD_CAT_ID><ELEMENT_SET_NO>999</ELEMENT_SET_NO><REV_AT_EPOCH>591</REV_AT_EPOCH><BSTAR>.7863275E-3</BSTAR><MEAN_MOTION_DOT>.2195E-3</MEAN_MOTION_DOT><MEAN_MOTION_DDOT>0</MEAN_MOTION_DDOT></tleParameters></data></segment></body></omm>
<omm id="CCSDS_OMM_VERS" version="2.0">
<header><CREATION_DATE/><ORIGINATOR/></header><body><segment><metadata><OBJECT_NAME>KUIPER-00114</OBJECT_NAME><OBJECT_ID>2025-171V</OBJECT_ID><CENTER_NAME>EARTH</CENTER_NAME><REF_FRAME>TEME</REF_FRAME><TIME_SYSTEM>UTC</TIME_SYSTEM><MEAN_ELEMENT_THEORY>SGP4</MEAN_ELEMENT_THEORY></metadata><data><meanElements><EPOCH>2025-11-03T22:01:47.931168</EPOCH><MEAN_MOTION>14.79924030</MEAN_MOTION><ECCENTRICITY>.00057543</ECCENTRICITY><INCLINATION>51.9013</INCLINATION><RA_OF_ASC_NODE>11.7707</RA_OF_ASC_NODE><ARG_OF_PERICENTER>58.2549</ARG_OF_PERICENTER><MEAN_ANOMALY>301.8974</MEAN_ANOMALY></meanElements><tleParameters><EPHEMERIS_TYPE>0</EPHEMERIS_TYPE><CLASSIFICATION_TYPE>U</CLASSIFICATION_TYPE><NORAD_CAT_ID>65151</NORAD_CAT_ID><ELEMENT_SET_NO>999</ELEMENT_SET_NO><REV_AT_EPOCH>1401</REV_AT_EPOCH><BSTAR>.50457183E-3</BSTAR><MEAN_MOTION_DOT>.3626E-4</MEAN_MOTION_DOT><MEAN_MOTION_DDOT>0</MEAN_MOTION_DDOT></tleParameters></data></segment></body></omm>
<omm id="CCSDS_OMM_VERS" version="2.0">
<header><CREATION_DATE/><ORIGINATOR/></header><body><segment><metadata><OBJECT_NAME>KUIPER-00115</OBJECT_NAME><OBJECT_ID>2025-171W</OBJECT_ID><CENTER_NAME>EARTH</CENTER_NAME><REF_FRAME>TEME</REF_FRAME><TIME_SYSTEM>UTC</TIME_SYSTEM><MEAN_ELEMENT_THEORY>SGP4</MEAN_ELEMENT_THEORY></metadata><data><meanElements><EPOCH>2025-11-03T22:00:03.000096</EPOCH><MEAN_MOTION>14.87281389</MEAN_MOTION><ECCENTRICITY>.00114052</ECCENTRICITY><INCLINATION>51.9283</INCLINATION><RA_OF_ASC_NODE>4.4027</RA_OF_ASC_NODE><ARG_OF_PERICENTER>76.2626</ARG_OF_PERICENTER><MEAN_ANOMALY>154.4579</MEAN_ANOMALY></meanElements><tleParameters><EPHEMERIS_TYPE>0</EPHEMERIS_TYPE><CLASSIFICATION_TYPE>U</CLASSIFICATION_TYPE><NORAD_CAT_ID>65152</NORAD_CAT_ID><ELEMENT_SET_NO>999</ELEMENT_SET_NO><REV_AT_EPOCH>566</REV_AT_EPOCH><BSTAR>-.21677442E-1</BSTAR><MEAN_MOTION_DOT>-.192488E-2</MEAN_MOTION_DOT><MEAN_MOTION_DDOT>0</MEAN_MOTION_DDOT></tleParameters></data></segment></body></omm>
<omm id="CCSDS_OMM_VERS" version="2.0">
<header><CREATION_DATE/><ORIGINATOR/></header><body><segment><metadata><OBJECT_NAME>KUIPER-00116</OBJECT_NAME><OBJECT_ID>2025-171X</OBJECT_ID><CENTER_NAME>EARTH</CENTER_NAME><REF_FRAME>TEME</REF_FRAME><TIME_SYSTEM>UTC</TIME_SYSTEM><MEAN_ELEMENT_THEORY>SGP4</MEAN_ELEMENT_THEORY></metadata><data><meanElements><EPOCH>2025-11-03T22:00:03.000096</EPOCH><MEAN_MOTION>14.79793592</MEAN_MOTION><ECCENTRICITY>.00101254</ECCENTRICITY><INCLINATION>51.9002</INCLINATION><RA_OF_ASC_NODE>9.1479</RA_OF_ASC_NODE><ARG_OF_PERICENTER>39.5346</ARG_OF_PERICENTER><MEAN_ANOMALY>199.7465</MEAN_ANOMALY></meanElements><tleParameters><EPHEMERIS_TYPE>0</EPHEMERIS_TYPE><CLASSIFICATION_TYPE>U</CLASSIFICATION_TYPE><NORAD_CAT_ID>65153</NORAD_CAT_ID><ELEMENT_SET_NO>999</ELEMENT_SET_NO><REV_AT_EPOCH>397</REV_AT_EPOCH><BSTAR>-.15532077E-2</BSTAR><MEAN_MOTION_DOT>-.12015E-3</MEAN_MOTION_DOT><MEAN_MOTION_DDOT>0</MEAN_MOTION_DDOT></tleParameters></data></segment></body></omm>
<omm id="CCSDS_OMM_VERS" version="2.0">
<header><CREATION_DATE/><ORIGINATOR/></header><body><segment><metadata><OBJECT_NAME>KUIPER-00118</OBJECT_NAME><OBJECT_ID>2025-171Y</OBJECT_ID><CENTER_NAME>EARTH</CENTER_NAME><REF_FRAME>TEME</REF_FRAME><TIME_SYSTEM>UTC</TIME_SYSTEM><MEAN_ELEMENT_THEORY>SGP4</MEAN_ELEMENT_THEORY></metadata><data><meanElements><EPOCH>2025-11-03T11:29:45.317472</EPOCH><MEAN_MOTION>14.79943844</MEAN_MOTION><ECCENTRICITY>.00018983</ECCENTRICITY><INCLINATION>51.9015</INCLINATION><RA_OF_ASC_NODE>13.6858</RA_OF_ASC_NODE><ARG_OF_PERICENTER>82.1929</ARG_OF_PERICENTER><MEAN_ANOMALY>277.9249</MEAN_ANOMALY></meanElements><tleParameters><EPHEMERIS_TYPE>0</EPHEMERIS_TYPE><CLASSIFICATION_TYPE>U</CLASSIFICATION_TYPE><NORAD_CAT_ID>65154</NORAD_CAT_ID><ELEMENT_SET_NO>999</ELEMENT_SET_NO><REV_AT_EPOCH>1395</REV_AT_EPOCH><BSTAR>.44503122E-3</BSTAR><MEAN_MOTION_DOT>.3174E-4</MEAN_MOTION_DOT><MEAN_MOTION_DDOT>0</MEAN_MOTION_DDOT></tleParameters></data></segment></body></omm>
<omm id="CCSDS_OMM_VERS" version="2.0">
<header><CREATION_DATE/><ORIGINATOR/></header><body><segment><metadata><OBJECT_NAME>KUIPER-00119</OBJECT_NAME><OBJECT_ID>2025-171Z</OBJECT_ID><CENTER_NAME>EARTH</CENTER_NAME><REF_FRAME>TEME</REF_FRAME><TIME_SYSTEM>UTC</TIME_SYSTEM><MEAN_ELEMENT_THEORY>SGP4</MEAN_ELEMENT_THEORY></metadata><data><meanElements><EPOCH>2025-11-03T22:00:03.000096</EPOCH><MEAN_MOTION>15.05171832</MEAN_MOTION><ECCENTRICITY>.0007054</ECCENTRICITY><INCLINATION>51.9040</INCLINATION><RA_OF_ASC_NODE>0.9221</RA_OF_ASC_NODE><ARG_OF_PERICENTER>48.8521</ARG_OF_PERICENTER><MEAN_ANOMALY>21.8265</MEAN_ANOMALY></meanElements><tleParameters><EPHEMERIS_TYPE>0</EPHEMERIS_TYPE><CLASSIFICATION_TYPE>U</CLASSIFICATION_TYPE><NORAD_CAT_ID>65155</NORAD_CAT_ID><ELEMENT_SET_NO>999</ELEMENT_SET_NO><REV_AT_EPOCH>543</REV_AT_EPOCH><BSTAR>-.37681701E-1</BSTAR><MEAN_MOTION_DOT>-.512062E-2</MEAN_MOTION_DOT><MEAN_MOTION_DDOT>0</MEAN_MOTION_DDOT></tleParameters></data></segment></body></omm>
<omm id="CCSDS_OMM_VERS" version="2.0">
<header><CREATION_DATE/><ORIGINATOR/></header><body><segment><metadata><OBJECT_NAME>KUIPER-00120</OBJECT_NAME><OBJECT_ID>2025-217A</OBJECT_ID><CENTER_NAME>EARTH</CENTER_NAME><REF_FRAME>TEME</REF_FRAME><TIME_SYSTEM>UTC</TIME_SYSTEM><MEAN_ELEMENT_THEORY>SGP4</MEAN_ELEMENT_THEORY></metadata><data><meanElements><EPOCH>2025-11-03T22:00:03.000096</EPOCH><MEAN_MOTION>15.21390436</MEAN_MOTION><ECCENTRICITY>.00118089</ECCENTRICITY><INCLINATION>51.8760</INCLINATION><RA_OF_ASC_NODE>253.4926</RA_OF_ASC_NODE><ARG_OF_PERICENTER>238.5716</ARG_OF_PERICENTER><MEAN_ANOMALY>106.0936</MEAN_ANOMALY></meanElements><tleParameters><EPHEMERIS_TYPE>0</EPHEMERIS_TYPE><CLASSIFICATION_TYPE>U</CLASSIFICATION_TYPE><NORAD_CAT_ID>65762</NORAD_CAT_ID><ELEMENT_SET_NO>999</ELEMENT_SET_NO><REV_AT_EPOCH>574</REV_AT_EPOCH><BSTAR>-.3710386E-1</BSTAR><MEAN_MOTION_DOT>-.784107E-2</MEAN_MOTION_DOT><MEAN_MOTION_DDOT>0</MEAN_MOTION_DDOT></tleParameters></data></segment></body></omm>
<omm id="CCSDS_OMM_VERS" version="2.0">
<header><CREATION_DATE/><ORIGINATOR/></header><body><segment><metadata><OBJECT_NAME>KUIPER-00132</OBJECT_NAME><OBJECT_ID>2025-217B</OBJECT_ID><CENTER_NAME>EARTH</CENTER_NAME><REF_FRAME>TEME</REF_FRAME><TIME_SYSTEM>UTC</TIME_SYSTEM><MEAN_ELEMENT_THEORY>SGP4</MEAN_ELEMENT_THEORY></metadata><data><meanElements><EPOCH>2025-11-03T13:21:09.693216</EPOCH><MEAN_MOTION>15.36166887</MEAN_MOTION><ECCENTRICITY>.00055219</ECCENTRICITY><INCLINATION>51.8641</INCLINATION><RA_OF_ASC_NODE>254.1077</RA_OF_ASC_NODE><ARG_OF_PERICENTER>234.2316</ARG_OF_PERICENTER><MEAN_ANOMALY>125.8157</MEAN_ANOMALY></meanElements><tleParameters><EPHEMERIS_TYPE>0</EPHEMERIS_TYPE><CLASSIFICATION_TYPE>U</CLASSIFICATION_TYPE><NORAD_CAT_ID>65763</NORAD_CAT_ID><ELEMENT_SET_NO>999</ELEMENT_SET_NO><REV_AT_EPOCH>601</REV_AT_EPOCH><BSTAR>.10930541E-2</BSTAR><MEAN_MOTION_DOT>.38946E-3</MEAN_MOTION_DOT><MEAN_MOTION_DDOT>0</MEAN_MOTION_DDOT></tleParameters></data></segment></body></omm>

</ndm>
